{
    "links": {
        "self": "http://www.neowsapp.com/rest/v1/neo/3338813?api_key=iIulBulltgU6a56xZRHN4H3l9WmuAYTsLGpBGhQ2"
    },
    "id": "3338813",
    "neo_reference_id": "3338813",
    "name": "(2006 QK33)",
    "designation": "2006 QK33",
    "nasa_jpl_url": "http://ssd.jpl.nasa.gov/sbdb.cgi?sstr=3338813",
    "absolute_magnitude_h": 23.9,
    "estimated_diameter": {
        "kilometers": {
            "estimated_diameter_min": 0.04411182,
            "estimated_diameter_max": 0.0986370281
        },
        "meters": {
            "estimated_diameter_min": 44.1118199997,
            "estimated_diameter_max": 98.6370281305
        },
        "miles": {
            "estimated_diameter_min": 0.0274098057,
            "estimated_diameter_max": 0.0612901888
        },
        "feet": {
            "estimated_diameter_min": 144.7238235278,
            "estimated_diameter_max": 323.6123073718
        }
    },
    "is_potentially_hazardous_asteroid": false,
    "close_approach_data": [
        {
            "close_approach_date": "2006-08-23",
            "close_approach_date_full": "2006-Aug-23 06:32",
            "epoch_date_close_approach": 1156314720000,
            "relative_velocity": {
                "kilometers_per_second": "11.4399284532",
                "kilometers_per_hour": "41183.7424316579",
                "miles_per_hour": "25589.9759570488"
            },
            "miss_distance": {
                "astronomical": "0.0569734197",
                "lunar": "22.1626602633",
                "kilometers": "8523102.233736039",
                "miles": "5296010.1487897782"
            },
            "orbiting_body": "Earth"
        }
    ],
    "orbital_data": {
        "orbit_id": "8",
        "orbit_determination_date": "2017-04-06 09:08:16",
        "first_observation_date": "2006-08-23",
        "last_observation_date": "2006-08-30",
        "data_arc_in_days": 7,
        "observations_used": 15,
        "orbit_uncertainty": "9",
        "minimum_orbit_intersection": ".0505021",
        "jupiter_tisserand_invariant": "3.071",
        "epoch_osculation": "2453973.5",
        "eccentricity": ".6010235434077819",
        "semi_major_axis": "2.639923533751153",
        "inclination": "14.87119296215548",
        "ascending_node_longitude": "150.7018052987829",
        "orbital_period": "1566.69857433029",
        "perihelion_distance": "1.053267337170442",
        "perihelion_argument": "192.8459761866983",
        "aphelion_distance": "4.226579730331864",
        "perihelion_time": "2453981.419853143622",
        "mean_anomaly": "358.1801559161291",
        "mean_motion": ".2297825541546099",
        "equinox": "J2000",
        "orbit_class": {
            "orbit_class_type": "AMO",
            "orbit_class_description": "Near-Earth asteroid orbits similar to that of 1221 Amor",
            "orbit_class_range": "1.017 AU < q (perihelion) < 1.3 AU"
        }
    },
    "is_sentry_object": false
}